HIMAWARI-8              
1 40267U 14060A   24008.08590822 -.00000249  00000+0  00000+0 0  9992
2 40267   0.0340 143.7906 0000873 155.4852 339.4307  1.00269366 33925
